OBJECT_NAME,OBJECT_ID,EPOCH,MEAN_MOTION,ECCENTRICITY,INCLINATION,RA_OF_ASC_NODE,ARG_OF_PERICENTER,MEAN_ANOMALY,EPHEMERIS_TYPE,CLASSIFICATION_TYPE,NORAD_CAT_ID,ELEMENT_SET_NO,REV_AT_EPOCH,BSTAR,MEAN_MOTION_DOT,MEAN_MOTION_DDOT
STARLINK-6275,2023-078F,2026-06-07T15:43:16.099680,14.98356431,.0003677,69.9998,137.5967,263.9853,96.0888,0,U,56772,999,16566,-.37419E-3,-.4558E-4,0
STARLINK-6296,2023-078G,2026-06-07T11:47:57.460992,14.98334097,.0003128,70.0003,78.2069,271.6729,88.4072,0,U,56773,999,16711,-.16243E-3,-.2031E-4,0
STARLINK-6190,2023-078H,2026-06-07T08:12:39.423744,14.98329302,.0003408,69.9986,138.5087,267.9252,92.1516,0,U,56774,999,16561,.30909E-4,.276E-5,0
STARLINK-6292,2023-078J,2026-06-07T11:41:56.796288,14.98347117,.0003048,70.0008,78.1931,268.6328,91.4481,0,U,56775,999,16711,-.3238E-3,-.3956E-4,0
STARLINK-6274,2023-078K,2026-06-07T13:54:28.700640,14.98329425,.0003089,69.9997,97.9951,267.1307,92.9499,0,U,56776,999,16663,.18351E-4,.126E-5,0
STARLINK-5582,2023-078L,2026-06-07T14:30:51.726240,14.98343653,.0003364,69.9990,117.9493,271.3357,88.7417,0,U,56777,999,16614,-.88409E-4,-.1148E-4,0
STARLINK-6304,2023-078M,2026-06-07T13:48:27.934848,14.98329860,.0003589,69.9998,97.9803,267.4629,92.6119,0,U,56778,999,16663,.13815E-4,.72E-6,0
STARLINK-6231,2023-078N,2026-06-07T13:12:24.211008,14.98329353,.0003026,70.0001,97.8919,269.2709,90.8103,0,U,56779,999,16662,.26316E-4,.221E-5,0
STARLINK-5963,2023-078P,2026-06-07T14:25:03.554976,14.98331252,.0004047,69.9994,117.5555,265.3587,94.7110,0,U,56780,999,16615,.13339E-3,.1499E-4,0
STARLINK-5989,2023-078Q,2026-06-07T14:00:48.604032,14.98334891,.000351,69.9989,117.8756,260.3913,99.6849,0,U,56781,999,16614,-.29207E-4,-.442E-5,0
STARLINK-6352,2023-078R,2026-06-07T13:42:27.563040,14.98329173,.0002873,69.9996,97.9650,268.4320,91.6510,0,U,56782,999,16663,.40509E-5,-.45E-6,0
STARLINK-6357,2023-078S,2026-06-07T13:30:26.608608,14.98325285,.0002563,70.0010,97.9331,263.6734,96.4133,0,U,56783,999,16663,-.25863E-4,-.401E-5,0
STARLINK-6354,2023-078T,2026-06-07T13:36:26.742816,14.98328653,.0003232,69.9997,97.9495,266.0989,93.9801,0,U,56784,999,16663,.22944E-4,.181E-5,0
STARLINK-5931,2023-078U,2026-06-07T14:12:50.793984,14.98336764,.0003436,69.9987,117.9057,262.9721,97.1047,0,U,56785,999,16683,.68342E-4,.723E-5,0
STARLINK-6341,2023-078V,2026-06-07T13:24:25.496352,14.98330713,.0003261,69.9999,97.9216,261.7346,98.3444,0,U,56786,999,16663,-.45222E-4,-.633E-5,0
STARLINK-6326,2023-078W,2026-06-07T12:48:21.686976,14.98330426,.0002894,70.0000,97.8371,269.4461,90.6366,0,U,56787,999,16663,.76692E-5,-.1E-7,0
STARLINK-6336,2023-078X,2026-06-07T13:18:24.939648,14.98328015,.0002887,69.9998,97.9072,268.4552,91.6276,0,U,56788,999,16663,.36912E-5,-.49E-6,0
STARLINK-6345,2023-078Z,2026-06-07T04:53:21.858144,14.98346247,.000356,70.0010,78.8076,270.2199,89.8552,0,U,56790,999,16707,-.17792E-3,-.2216E-4,0
STARLINK-5977,2023-078AA,2026-06-07T14:54:52.053120,14.98349147,.0002711,70.0011,117.6066,267.6353,92.4496,0,U,56791,999,16615,-.24685E-3,-.3039E-4,0
STARLINK-6046,2023-078AB,2026-06-07T07:54:20.363904,14.98285803,.0003217,69.9985,118.5934,281.8985,78.1814,0,U,56792,999,16610,.77366E-3,.914E-4,0
STARLINK-6052,2023-078AC,2026-06-07T07:18:14.154336,14.98330987,.0003451,69.9991,118.5060,265.0676,95.0089,0,U,56793,999,16610,.61258E-4,.638E-5,0
STARLINK-6060,2023-078AD,2026-06-07T13:06:23.323392,14.98330481,.000314,70.0003,97.8787,260.8122,99.2682,0,U,56794,999,16663,.13073E-4,.63E-6,0
STARLINK-6061,2023-078AE,2026-06-06T14:04:05.833632,14.98676632,.0004109,69.9995,100.1459,269.5541,90.5147,0,U,56795,999,16649,.32323E-2,.39042E-3,0
STARLINK-6049,2023-078AF,2026-06-07T14:06:49.185792,14.98328242,.0003368,69.9989,117.8906,270.1905,89.8868,0,U,56796,999,16614,-.85601E-4,-.1114E-4,0
STARLINK-6058,2023-078AG,2026-06-07T14:24:52.182144,14.98319314,.0002568,70.0041,117.9229,268.4200,91.6665,0,U,56797,999,16614,-.78428E-5,-.186E-5,0
STARLINK-5953,2023-078AJ,2026-06-07T07:24:14.829408,14.98330481,.0003309,69.9989,118.5162,266.2159,93.8622,0,U,56799,999,16610,.66875E-4,.705E-5,0
STARLINK-6036,2023-078AK,2026-06-07T07:30:17.081280,14.98325098,.0002969,69.9996,118.5344,270.2327,89.8492,0,U,56800,999,16610,.59506E-4,.617E-5,0
STARLINK-6087,2023-078AL,2026-06-07T12:42:21.209760,14.98331340,.0003307,69.9998,97.8186,268.6249,91.4531,0,U,56801,999,16663,.11904E-3,.1328E-4,0
STARLINK-6029,2023-078AN,2026-06-07T15:12:53.940096,14.98330437,.0003372,69.9992,117.6486,266.8016,93.2758,0,U,56803,999,16615,.73367E-5,-.6E-7,0
STARLINK-6069,2023-078AP,2026-06-07T12:54:22.332672,14.98328718,.0002673,70.0001,97.8492,262.6999,97.3857,0,U,56804,999,16730,-.23754E-4,-.376E-5,0
STARLINK-6064,2023-078AQ,2026-06-07T13:00:24.501600,14.98328131,.0001645,70.0045,97.8608,271.7634,88.3336,0,U,56805,999,16663,-.50741E-3,-.6141E-4,0
STARLINK-6072,2023-078AR,2026-06-07T12:05:58.610112,14.98318075,.0002263,70.0012,77.8490,267.3935,92.6965,0,U,56806,999,16709,-.19113E-3,-.2372E-4,0
STARLINK-6073,2023-078AS,2026-06-07T06:06:01.766304,14.98315794,.0004031,70.0020,98.4693,288.3621,71.7099,0,U,56807,999,16658,-.19966E-3,-.2474E-4,0
STARLINK-6042,2023-078AT,2026-06-07T17:26:56.497056,14.98334246,.0002953,70.0011,47.5248,270.4728,89.6092,0,U,56808,999,16790,-.33127E-3,-.4044E-4,0
STARLINK-6040,2023-078AU,2026-06-07T14:42:50.730624,14.98329111,.0003377,69.9993,117.5753,265.1021,94.9752,0,U,56809,999,16615,.13659E-4,.7E-6,0
STARLINK-6031,2023-078AV,2026-06-07T15:06:55.255680,14.98327949,.0003268,69.9990,117.6339,263.7462,96.3325,0,U,56810,999,16615,.62833E-4,.657E-5,0
STARLINK-6065,2023-078AX,2026-06-07T12:42:35.228160,14.98331105,.0003081,70.0000,97.8243,267.9508,92.1298,0,U,56812,999,16663,.77718E-4,.834E-5,0
STARLINK-6056,2023-078AY,2026-06-07T03:24:07.384896,14.98340733,.0003917,69.9990,118.7392,266.7941,93.2770,0,U,56813,999,16608,-.15055E-3,-.189E-4,0
STARLINK-6059,2023-078AZ,2026-06-07T14:48:51.666624,14.98336354,.0003078,69.9994,117.5895,262.1695,97.9115,0,U,56814,999,16615,-.83287E-4,-.1087E-4,0
STARLINK-6067,2023-078BB,2026-06-07T05:59:46.557024,14.98341708,.0003365,69.9996,98.4467,261.3777,98.7001,0,U,56816,999,16659,-.38613E-3,-.4699E-4,0
STARLINK-6028,2023-078BD,2026-06-07T20:00:04.000032,14.98313070,.0002981,70.0007,116.9937,265.5763,224.9213,0,U,56818,999,545,.36541E-2,.43761E-3,0
STARLINK-30119,2023-079A,2026-06-06T17:36:04.708512,15.27578584,.0001255,43.0009,324.4110,254.9323,105.1390,0,U,56823,999,16693,.22193954E-4,.349E-5,0
STARLINK-30120,2023-079B,2026-06-07T17:28:46.521408,15.27568700,.0000813,43.0069,318.9881,228.8933,131.1848,0,U,56824,999,16697,.1967E-4,.279E-5,0
STARLINK-30084,2023-079C,2026-06-07T17:35:58.291584,15.27573629,.0000845,43.0020,318.1670,265.9920,94.0835,0,U,56825,999,16666,-.30162E-4,-.1092E-4,0
STARLINK-30114,2023-079D,2026-06-06T17:24:55.031616,15.27583544,.00025386,43.0087,324.1645,260.7284,99.3281,0,U,56826,999,16681,.4930049E-4,.1094E-4,0
STARLINK-30151,2023-079E,2026-06-07T04:11:05.246592,15.27592903,.0001922,43.0059,321.6945,269.9717,90.0914,0,U,56827,999,16657,.82684E-4,.2014E-4,0
STARLINK-30152,2023-079F,2026-06-07T04:16:38.422272,15.27597041,.0002185,43.0075,321.7344,276.8569,83.2034,0,U,56828,999,16657,.98985E-4,.2464E-4,0
STARLINK-30128,2023-079K,2026-06-07T16:15:35.769312,15.27589496,.0001158,43.0037,293.0324,279.5957,80.4764,0,U,56832,999,16054,.60315E-6,-.246E-5,0
STARLINK-30131,2023-079L,2026-06-07T16:26:54.246048,15.23854031,.0003697,42.9990,296.6827,293.6351,66.4111,0,U,56833,999,16690,.98926E-3,.2416E-3,0
STARLINK-30069,2023-079M,2026-06-01T22:39:17.977248,15.27588054,.00021708,43.0042,347.8346,254.3895,105.6717,0,U,56834,999,16581,.24274857E-3,.6425E-4,0
STARLINK-30144,2023-079N,2026-06-07T16:37:40.975104,15.37789962,.0010938,42.9879,311.7916,313.2232,46.7709,0,U,56835,999,16673,.64123E-3,.24169E-3,0
STARLINK-30142,2023-079P,2026-06-07T17:01:44.223168,15.27571597,.0001685,43.0056,315.4251,266.2814,93.7845,0,U,56836,999,16669,-.13088E-4,-.622E-5,0
STARLINK-30133,2023-079Q,2026-06-07T17:34:08.690592,15.27559141,.00012,43.0026,318.1386,278.7668,81.3048,0,U,56837,999,16666,-.13782E-3,-.405E-4,0
STARLINK-30123,2023-079R,2026-06-07T12:20:23.263296,15.27583365,.0000483,42.9990,246.6623,243.0499,117.0303,0,U,56838,999,16748,.39152E-4,.816E-5,0
STARLINK-30076,2023-079S,2026-06-07T13:34:12.174816,15.27579848,.0000479,43.0001,319.4657,48.7657,311.3236,0,U,56839,999,16663,.13783E-4,.118E-5,0
STARLINK-30073,2023-079T,2026-06-07T20:00:04.000032,15.27559384,.0001163,43.0009,143.2914,248.0382,338.2692,0,U,56840,999,589,.11499E-2,.31497E-3,0
STARLINK-30078,2023-079U,2026-06-06T01:27:45.442368,15.27575794,.0001633,43.0034,280.2917,274.8911,85.1755,0,U,56841,999,16696,.61279E-6,-.245E-5,0
STARLINK-30135,2023-079V,2026-06-02T11:30:19.590624,15.27582277,.00014397,43.0033,348.2873,259.4568,100.6121,0,U,56842,999,16585,.55606109E-4,.1268E-4,0
STARLINK-30137,2023-079W,2026-06-07T18:01:52.077216,15.27557893,.000006,43.0034,318.1956,337.5288,22.5561,0,U,56843,999,16666,-.16804E-3,-.4879E-4,0
STARLINK-30136,2023-079X,2026-06-06T14:07:22.562112,15.27576949,.0003107,43.0076,324.9366,262.5755,97.4744,0,U,56844,999,16648,.14991E-4,.15E-5,0
STARLINK-6206,2023-083A,2026-06-07T02:39:03.403584,15.27582100,.0002243,43.0075,300.4108,263.5007,96.5589,0,U,56876,999,16530,.35134E-4,.704E-5,0
STARLINK-6209,2023-083B,2026-06-07T15:45:24.496128,15.27580959,.0001998,43.0026,296.7690,267.7868,92.2755,0,U,56877,999,16539,.33664E-4,.664E-5,0
STARLINK-6182,2023-083C,2026-06-07T02:48:18.705024,15.27579190,.000204,43.0046,300.4626,271.0133,89.0485,0,U,56878,999,16530,.21732E-4,.336E-5,0
STARLINK-5707,2023-083D,2026-06-06T00:00:02.999808,15.27570421,.00022419,43.0046,306.8166,271.7192,38.1250,0,U,56879,999,566,.44240346E-3,.11928E-3,0
STARLINK-6177,2023-083E,2026-06-07T16:20:35.403648,15.27565388,.0001522,42.9996,296.9540,281.8412,78.2269,0,U,56880,999,16539,-.39499E-4,-.1348E-4,0
